CUTE-1 (CO-55)          
1 27844U 03031E   26182.99996152  .00000303  00000+0  15002-3 0  9997
2 27844  98.6736 191.3725 0010408 137.1021 223.0971 14.24344824193780
CUBESAT XI-IV (CO-57)   
1 27848U 03031J   26183.27698888  .00000271  00000+0  13794-3 0  9998
2 27848  98.6769 191.3466 0009960 153.7682 206.4003 14.23628936193521
CUBESAT XI-V            
1 28895U 05043F   26182.94295542  .00001588  00000+0  25710-3 0  9992
2 28895  98.3000 338.8758 0014656 154.4297 205.7638 14.72672414103924
CUTE-1.7+APD II (CO-65) 
1 32785U 08021C   26183.22979959  .00006657  00000+0  41804-3 0  9991
2 32785  97.8282 164.9629 0008190 349.4022  10.7033 15.09596776987465
CANX-2                  
1 32790U 08021H   26182.90879930  .00004520  00000+0  31665-3 0  9990
2 32790  97.8635 162.9739 0010122   3.8303 356.2999 15.05719826987024
SEEDS II (CO-66)        
1 32791U 08021J   26182.95274746  .00022706  00000+0  70777-3 0  9993
2 32791  97.7519 181.5604 0001376 189.0732 171.0485 15.33260854989553
SWISSCUBE               
1 35932U 09051B   26183.28877764  .00001164  00000+0  23926-3 0  9992
2 35932  98.4025  91.4397 0007061 154.9157 205.2388 14.62510844891361
BEESAT-1                
1 35933U 09051C   26183.30608930  .00000968  00000+0  20391-3 0  9997
2 35933  98.3950  91.0608 0005269 165.6666 194.4685 14.61745142891393
ITUPSAT1                
1 35935U 09051E   26182.96766707  .00000816  00000+0  17832-3 0  9995
2 35935  98.4034  89.8935 0007122 182.8141 177.3019 14.60462418890892
TISAT 1                 
1 36799U 10035E   26182.81342010  .00025312  00000+0  81329-3 0  9999
2 36799  98.0711 130.6661 0003297 144.1100 216.0362 15.32268645869945
AEROCUBE 4.5A           
1 38767U 12048K   26180.81601320  .02026816  74244-5  11805-2 0  9992
2 38767  64.6148 340.0554 0018867 267.4936  92.4076 16.17962819374686
STRAND-1                
1 39090U 13009E   26183.23351809  .00000332  00000+0  12610-3 0  9995
2 39090  98.3927   3.0978 0008604 177.8958 182.2266 14.37172527699225
BRITE-AUSTRIA           
1 39091U 13009F   26183.25290849  .00000205  00000+0  84421-4 0  9993
2 39091  98.4000   2.3161 0009940 188.4657 171.6363 14.36548177699219
NEE-01 PEGASO           
1 39151U 13018B   26182.86925203  .00003062  00000+0  29450-3 0  9999
2 39151  98.1239 327.5057 0013756 114.3640 245.9017 14.93732566712894
POPACS 2                
1 39269U 13055E   26181.19306930  .00014049  00000+0  23497-3 0  9997
2 39269  80.9915 129.3032 0416257 152.0121 210.4183 14.91555130665156
POPACS 3                
1 39270U 13055F   26183.09745036  .00011892  00000+0  28095-3 0  9996
2 39270  80.9993 213.0188 0550517  24.6132 338.0292 14.56403618640729
ZACUBE-1 (TSHEPISOSAT)  
1 39417U 13066B   26183.13779984  .00003761  00000+0  29186-3 0  9993
2 39417  97.8041 145.5507 0042890 197.2821 162.6946 15.01270925682973
WNISAT-1                
1 39423U 13066H   26183.30878883  .00001456  00000+0  27219-3 0  9991
2 39423  97.7220 331.3931 0162958 183.7829 176.2153 14.58095177668936
TRITON-1                
1 39427U 13066M   26183.28742766  .00001421  00000+0  17496-3 0  9990
2 39427  97.8238  92.7508 0089443 184.1419 175.9065 14.81752808676322
GOMX-1                  
1 39430U 13066Q   26183.23425780  .00001356  00000+0  20867-3 0  9996
2 39430  97.6468  22.7470 0129435  29.7255 331.1226 14.69508555672121
CUBEBUG-2 (LO-74)       
1 39440U 13066AA  26183.13443484  .00005533  00000+0  50993-3 0  9991
2 39440  97.8914 132.1769 0056725 339.6462  20.2496 14.93886243679224
NEE-02 KRYSAOR          
1 39441U 13066AB  26183.08387250  .00002808  00000+0  30977-3 0  9996
2 39441  97.8896 122.1929 0066660  22.2887 338.1202 14.86688347678419
FUNCUBE-1 (AO-73)       
1 39444U 13066AE  26183.16970451  .00007525  00000+0  46384-3 0  9999
2 39444  97.8285 154.9304 0037286 150.1022 210.2346 15.09671649681920
UWE-3                   
1 39446U 13066AG  26182.85315259  .00003431  00000+0  29591-3 0  9998
2 39446  97.8710 139.0279 0047128 271.0445  88.5377 14.97133222679774
BRITE-CA1 (TORONTO)     
1 40020U 14033L   26183.25730312  .00001116  00000+0  17506-3 0  9990
2 40020  97.9758 311.9090 0077588 227.9818 131.4768 14.72702145644432
DUCHIFAT-1              
1 40021U 14033M   26183.10087887  .00143832  00000+0  12875-2 0  9992
2 40021  98.0445 244.3920 0000096 180.5510 179.5749 15.67889029658082
NANOSATC-BR1            
1 40024U 14033Q   26183.03514857  .00021749  00000+0  70652-3 0  9999
2 40024  98.0710 216.7426 0005218 127.6807 232.4907 15.31942146656259
QB50P1                  
1 40025U 14033R   26182.97796174  .00010559  00000+0  51493-3 0  9995
2 40025  98.0959 195.1628 0009347 164.7109 195.4407 15.18486932655278
QB50P2                  
1 40032U 14033Y   26183.22259638  .00008625  00000+0  46061-3 0  9997
2 40032  98.0749 181.0404 0009169 120.0574 240.1567 15.15355500654943
PERSEUS-M2              
1 40037U 14033AD  26183.31792940  .00001369  00000+0  12886-3 0  9996
2 40037  97.9970 134.1682 0010414 248.6713 111.3396 14.95553288653045
